[{"OBJECT_NAME":"STARLINK-4074","OBJECT_ID":"2022-053Y","EPOCH":"2026-03-09T10:41:39.958368","MEAN_MOTION":15.08837037,"ECCENTRICITY":0.00013095,"INCLINATION":53.2169,"RA_OF_ASC_NODE":145.3257,"ARG_OF_PERICENTER":94.5415,"MEAN_ANOMALY":265.5727,"EPHEMERIS_TYPE":0,"CLASSIFICATION_TYPE":"U","NORAD_CAT_ID":52678,"ELEMENT_SET_NO":999,"REV_AT_EPOCH":21113,"BSTAR":1.0773696e-5,"MEAN_MOTION_DOT":-1.16e-6,"MEAN_MOTION_DDOT":0},{"OBJECT_NAME":"UNKNOWN","OBJECT_ID":"","EPOCH":"2026-03-04T23:05:58.793856","MEAN_MOTION":14.04989219,"ECCENTRICITY":0.0516129,"INCLINATION":65.7446,"RA_OF_ASC_NODE":268.6872,"ARG_OF_PERICENTER":256.6593,"MEAN_ANOMALY":97.6465,"EPHEMERIS_TYPE":0,"CLASSIFICATION_TYPE":"U","NORAD_CAT_ID":81995,"ELEMENT_SET_NO":999,"REV_AT_EPOCH":61577,"BSTAR":0.00096399,"MEAN_MOTION_DOT":5.163e-5,"MEAN_MOTION_DDOT":0}]
